BEIDOU-3 M26 (C48)      
1 58655U 23207B   26089.16388542 -.00000019  00000+0  00000+0 0  9994
2 58655  55.6870  64.9536 0005568 296.6294  63.3008  1.86229633 15351
BEIDOU-3 M25 (C47)      
1 61186U 24168B   26094.08597944 -.00000064  00000+0  00000+0 0  9999
2 61186  54.5395 304.8170 0003725 321.6272 215.3942  1.86230346 10402
BEIDOU-3 M27 (C49)      
1 61187U 24168C   26093.88644255 -.00000064  00000+0  00000+0 0  9995
2 61187  54.5346 304.8072 0002876  31.7599 146.4859  1.86230456  7877
